[{"OBJECT_NAME":"NUSAT-49 (KLARA DAN VON NEUMANN)","OBJECT_ID":"2024-149AJ","EPOCH":"2026-03-09T19:09:16.004160","MEAN_MOTION":15.30828857,"ECCENTRICITY":0.00011321,"INCLINATION":97.3807,"RA_OF_ASC_NODE":150.738,"ARG_OF_PERICENTER":286.7761,"MEAN_ANOMALY":73.3356,"EPHEMERIS_TYPE":0,"CLASSIFICATION_TYPE":"U","NORAD_CAT_ID":60500,"ELEMENT_SET_NO":999,"REV_AT_EPOCH":8693,"BSTAR":0.00043568345,"MEAN_MOTION_DOT":0.00012912,"MEAN_MOTION_DDOT":0},{"OBJECT_NAME":"STARLINK-34885","OBJECT_ID":"2025-189F","EPOCH":"2026-03-09T16:08:44.062080","MEAN_MOTION":15.3019596,"ECCENTRICITY":9.665e-5,"INCLINATION":53.1575,"RA_OF_ASC_NODE":206.8608,"ARG_OF_PERICENTER":93.0634,"MEAN_ANOMALY":267.0477,"EPHEMERIS_TYPE":0,"CLASSIFICATION_TYPE":"U","NORAD_CAT_ID":65328,"ELEMENT_SET_NO":999,"REV_AT_EPOCH":3104,"BSTAR":0.00080553649,"MEAN_MOTION_DOT":0.00023571,"MEAN_MOTION_DDOT":0}]
